[{"OBJECT_NAME":"DUTHSAT-2","OBJECT_ID":"2025-135C","EPOCH":"2026-03-09T21:32:17.103552","MEAN_MOTION":15.24292207,"ECCENTRICITY":0.00054547,"INCLINATION":97.4491,"RA_OF_ASC_NODE":185.111,"ARG_OF_PERICENTER":168.1696,"MEAN_ANOMALY":191.967,"EPHEMERIS_TYPE":0,"CLASSIFICATION_TYPE":"U","NORAD_CAT_ID":64530,"ELEMENT_SET_NO":999,"REV_AT_EPOCH":3979,"BSTAR":0.00073395674,"MEAN_MOTION_DOT":0.00017894,"MEAN_MOTION_DDOT":0},{"OBJECT_NAME":"COSMOS 2535 DEB","OBJECT_ID":"2019-039M","EPOCH":"2026-03-08T03:25:35.903424","MEAN_MOTION":15.28322551,"ECCENTRICITY":0.0014917,"INCLINATION":97.5619,"RA_OF_ASC_NODE":139.2722,"ARG_OF_PERICENTER":329.0964,"MEAN_ANOMALY":30.9396,"EPHEMERIS_TYPE":0,"CLASSIFICATION_TYPE":"U","NORAD_CAT_ID":44641,"ELEMENT_SET_NO":999,"REV_AT_EPOCH":35167,"BSTAR":0.0011539757,"MEAN_MOTION_DOT":0.0003196,"MEAN_MOTION_DDOT":0}]
